[{"OBJECT_NAME":"OBJECT F","OBJECT_ID":"2024-024F","EPOCH":"2026-03-09T22:33:03.733056","MEAN_MOTION":15.20287854,"ECCENTRICITY":0.00130865,"INCLINATION":97.3129,"RA_OF_ASC_NODE":136.438,"ARG_OF_PERICENTER":36.354,"MEAN_ANOMALY":323.8582,"EPHEMERIS_TYPE":0,"CLASSIFICATION_TYPE":"U","NORAD_CAT_ID":58922,"ELEMENT_SET_NO":999,"REV_AT_EPOCH":11617,"BSTAR":0.00052703625,"MEAN_MOTION_DOT":0.00011414,"MEAN_MOTION_DDOT":0},{"OBJECT_NAME":"OBJECT AG","OBJECT_ID":"2025-313AG","EPOCH":"2026-03-09T22:37:52.608000","MEAN_MOTION":15.21637912,"ECCENTRICITY":0.00154165,"INCLINATION":97.3989,"RA_OF_ASC_NODE":145.1743,"ARG_OF_PERICENTER":5.2806,"MEAN_ANOMALY":354.859,"EPHEMERIS_TYPE":0,"CLASSIFICATION_TYPE":"U","NORAD_CAT_ID":67278,"ELEMENT_SET_NO":999,"REV_AT_EPOCH":1086,"BSTAR":0.000405111,"MEAN_MOTION_DOT":9.115e-5,"MEAN_MOTION_DDOT":0}]
